ADRAS-J                 
1 58992U 24034A   24104.79960554  .00005123  00000+0  48722-3 0  9998
2 58992  98.2078  74.9560 0042152 260.0688  99.5771 14.93265651  8259
